[ {"CCSDS_OMM_VERS": "3.0", "COMMENT": "GENERATED VIA SPACE-TRACK.ORG API", "CREATION_DATE": "2019-12-31T14:30:18", "ORIGINATOR": "18 SPCS", "OBJECT_NAME": "OBJECT F", "OBJECT_ID": "2019-092F", "CENTER_NAME": "EARTH", "REF_FRAME": "TEME", "TIME_SYSTEM": "UTC", "MEAN_ELEMENT_THEORY": "SGP4", "EPOCH": "2019-12-31T10:53:50.059968", "MEAN_MOTION": "15.15173731", "ECCENTRICITY": "0.00134380", "INCLINATION": "97.4602", "RA_OF_ASC_NODE": "186.6641", "ARG_OF_PERICENTER": "216.9924", "MEAN_ANOMALY": "143.0535", "EPHEMERIS_TYPE": "0", "CLASSIFICATION_TYPE": "U", "NORAD_CAT_ID": "44878", "ELEMENT_SET_NO": "999", "REV_AT_EPOCH": "194", "BSTAR": "0.00000000000000", "MEAN_MOTION_DOT": "-0.00000066", "MEAN_MOTION_DDOT": "0.0000000000000", "SEMIMAJOR_AXIS": "6898.588", "PERIOD": "95.038", "APOAPSIS": "529.723", "PERIAPSIS": "511.182", "OBJECT_TYPE": "TBA", "RCS_SIZE": "SMALL", "COUNTRY_CODE": "TBD", "LAUNCH_DATE": "2019-12-18", "SITE": "FRGUI", "DECAY_DATE": null, "FILE": "2676039", "GP_ID": "145849294", "TLE_LINE0": "0 OBJECT F", "TLE_LINE1": "1 44878U 19092F   19365.45405162 -.00000066  00000-0  00000+0 0  9995", "TLE_LINE2": "2 44878  97.4602 186.6641 0013438 216.9924 143.0535 15.15173731  1944"}, {"CCSDS_OMM_VERS": "3.0", "COMMENT": "GENERATED VIA SPACE-TRACK.ORG API", "CREATION_DATE": "2020-01-01T22:20:16", "ORIGINATOR": "18 SPCS", "OBJECT_NAME": "OBJECT F", "OBJECT_ID": "2019-092F", "CENTER_NAME": "EARTH", "REF_FRAME": "TEME", "TIME_SYSTEM": "UTC", "MEAN_ELEMENT_THEORY": "SGP4", "EPOCH": "2020-01-01T15:25:36.538464", "MEAN_MOTION": "15.15176141", "ECCENTRICITY": "0.00137840", "INCLINATION": "97.4614", "RA_OF_ASC_NODE": "187.8324", "ARG_OF_PERICENTER": "213.6672", "MEAN_ANOMALY": "146.3768", "EPHEMERIS_TYPE": "0", "CLASSIFICATION_TYPE": "U", "NORAD_CAT_ID": "44878", "ELEMENT_SET_NO": "999", "REV_AT_EPOCH": "212", "BSTAR": "0.00000000000000", "MEAN_MOTION_DOT": "-0.00000066", "MEAN_MOTION_DDOT": "0.0000000000000", "SEMIMAJOR_AXIS": "6898.580", "PERIOD": "95.038", "APOAPSIS": "529.954", "PERIAPSIS": "510.936", "OBJECT_TYPE": "TBA", "RCS_SIZE": "SMALL", "COUNTRY_CODE": "TBD", "LAUNCH_DATE": "2019-12-18", "SITE": "FRGUI", "DECAY_DATE": null, "FILE": "2676754", "GP_ID": "145924079", "TLE_LINE0": "0 OBJECT F", "TLE_LINE1": "1 44878U 19092F   20001.64278401 -.00000066  00000-0  00000+0 0  9999", "TLE_LINE2": "2 44878  97.4614 187.8324 0013784 213.6672 146.3768 15.15176141  2129"}, {"CCSDS_OMM_VERS": "3.0", "COMMENT": "GENERATED VIA SPACE-TRACK.ORG API", "CREATION_DATE": "2020-01-03T06:39:03", "ORIGINATOR": "18 SPCS", "OBJECT_NAME": "OBJECT F", "OBJECT_ID": "2019-092F", "CENTER_NAME": "EARTH", "REF_FRAME": "TEME", "TIME_SYSTEM": "UTC", "MEAN_ELEMENT_THEORY": "SGP4", "EPOCH": "2020-01-02T15:12:05.384160", "MEAN_MOTION": "15.15177777", "ECCENTRICITY": "0.00134880", "INCLINATION": "97.4625", "RA_OF_ASC_NODE": "188.8046", "ARG_OF_PERICENTER": "210.3874", "MEAN_ANOMALY": "149.6626", "EPHEMERIS_TYPE": "0", "CLASSIFICATION_TYPE": "U", "NORAD_CAT_ID": "44878", "ELEMENT_SET_NO": "999", "REV_AT_EPOCH": "227", "BSTAR": "0.00000000000000", "MEAN_MOTION_DOT": "-0.00000066", "MEAN_MOTION_DDOT": "0.0000000000000", "SEMIMAJOR_AXIS": "6898.575", "PERIOD": "95.038", "APOAPSIS": "529.745", "PERIAPSIS": "511.136", "OBJECT_TYPE": "TBA", "RCS_SIZE": "SMALL", "COUNTRY_CODE": "TBD", "LAUNCH_DATE": "2019-12-18", "SITE": "FRGUI", "DECAY_DATE": null, "FILE": "2677562", "GP_ID": "146002300", "TLE_LINE0": "0 OBJECT F", "TLE_LINE1": "1 44878U 19092F   20002.63339565 -.00000066 +00000-0 +00000-0 0  9999", "TLE_LINE2": "2 44878 097.4625 188.8046 0013488 210.3874 149.6626 15.15177777002273"}, {"CCSDS_OMM_VERS": "3.0", "COMMENT": "GENERATED VIA SPACE-TRACK.ORG API", "CREATION_DATE": "2020-01-03T06:20:17", "ORIGINATOR": "18 SPCS", "OBJECT_NAME": "OBJECT F", "OBJECT_ID": "2019-092F", "CENTER_NAME": "EARTH", "REF_FRAME": "TEME", "TIME_SYSTEM": "UTC", "MEAN_ELEMENT_THEORY": "SGP4", "EPOCH": "2020-01-02T23:07:34.982112", "MEAN_MOTION": "15.15177931", "ECCENTRICITY": "0.00132670", "INCLINATION": "97.4627", "RA_OF_ASC_NODE": "189.1291", "ARG_OF_PERICENTER": "209.3573", "MEAN_ANOMALY": "150.6901", "EPHEMERIS_TYPE": "0", "CLASSIFICATION_TYPE": "U", "NORAD_CAT_ID": "44878", "ELEMENT_SET_NO": "999", "REV_AT_EPOCH": "232", "BSTAR": "0.00000000000000", "MEAN_MOTION_DOT": "-0.00000066", "MEAN_MOTION_DDOT": "0.0000000000000", "SEMIMAJOR_AXIS": "6898.575", "PERIOD": "95.038", "APOAPSIS": "529.592", "PERIAPSIS": "511.288", "OBJECT_TYPE": "TBA", "RCS_SIZE": "SMALL", "COUNTRY_CODE": "TBD", "LAUNCH_DATE": "2019-12-18", "SITE": "FRGUI", "DECAY_DATE": null, "FILE": "2677451", "GP_ID": "145979451", "TLE_LINE0": "0 OBJECT F", "TLE_LINE1": "1 44878U 19092F   20002.96359933 -.00000066  00000-0  00000+0 0  9995", "TLE_LINE2": "2 44878  97.4627 189.1291 0013267 209.3573 150.6901 15.15177931  2326"}, {"CCSDS_OMM_VERS": "3.0", "COMMENT": "GENERATED VIA SPACE-TRACK.ORG API", "CREATION_DATE": "2020-01-04T05:49:52", "ORIGINATOR": "18 SPCS", "OBJECT_NAME": "OBJECT F", "OBJECT_ID": "2019-092F", "CENTER_NAME": "EARTH", "REF_FRAME": "TEME", "TIME_SYSTEM": "UTC", "MEAN_ELEMENT_THEORY": "SGP4", "EPOCH": "2020-01-03T14:58:34.317120", "MEAN_MOTION": "15.15180265", "ECCENTRICITY": "0.00132620", "INCLINATION": "97.4616", "RA_OF_ASC_NODE": "189.7774", "ARG_OF_PERICENTER": "206.9042", "MEAN_ANOMALY": "153.1670", "EPHEMERIS_TYPE": "0", "CLASSIFICATION_TYPE": "U", "NORAD_CAT_ID": "44878", "ELEMENT_SET_NO": "999", "REV_AT_EPOCH": "242", "BSTAR": "0.00000000000000", "MEAN_MOTION_DOT": "-0.00000066", "MEAN_MOTION_DDOT": "0.0000000000000", "SEMIMAJOR_AXIS": "6898.568", "PERIOD": "95.038", "APOAPSIS": "529.582", "PERIAPSIS": "511.284", "OBJECT_TYPE": "TBA", "RCS_SIZE": "SMALL", "COUNTRY_CODE": "TBD", "LAUNCH_DATE": "2019-12-18", "SITE": "FRGUI", "DECAY_DATE": null, "FILE": "2678007", "GP_ID": "146069526", "TLE_LINE0": "0 OBJECT F", "TLE_LINE1": "1 44878U 19092F   20003.62400830 -.00000066 +00000-0 +00000-0 0  9993", "TLE_LINE2": "2 44878 097.4616 189.7774 0013262 206.9042 153.1670 15.15180265002421"}, {"CCSDS_OMM_VERS": "3.0", "COMMENT": "GENERATED VIA SPACE-TRACK.ORG API", "CREATION_DATE": "2020-01-04T06:20:17", "ORIGINATOR": "18 SPCS", "OBJECT_NAME": "OBJECT F", "OBJECT_ID": "2019-092F", "CENTER_NAME": "EARTH", "REF_FRAME": "TEME", "TIME_SYSTEM": "UTC", "MEAN_ELEMENT_THEORY": "SGP4", "EPOCH": "2020-01-04T00:29:09.609504", "MEAN_MOTION": "15.15180589", "ECCENTRICITY": "0.00134220", "INCLINATION": "97.4619", "RA_OF_ASC_NODE": "190.1660", "ARG_OF_PERICENTER": "205.3795", "MEAN_ANOMALY": "154.6826", "EPHEMERIS_TYPE": "0", "CLASSIFICATION_TYPE": "U", "NORAD_CAT_ID": "44878", "ELEMENT_SET_NO": "999", "REV_AT_EPOCH": "248", "BSTAR": "0.00000000000000", "MEAN_MOTION_DOT": "-0.00000066", "MEAN_MOTION_DDOT": "0.0000000000000", "SEMIMAJOR_AXIS": "6898.567", "PERIOD": "95.038", "APOAPSIS": "529.691", "PERIAPSIS": "511.173", "OBJECT_TYPE": "TBA", "RCS_SIZE": "SMALL", "COUNTRY_CODE": "TBD", "LAUNCH_DATE": "2019-12-18", "SITE": "FRGUI", "DECAY_DATE": null, "FILE": "2678021", "GP_ID": "146089203", "TLE_LINE0": "0 OBJECT F", "TLE_LINE1": "1 44878U 19092F   20004.02025011 -.00000066  00000-0  00000+0 0  9991", "TLE_LINE2": "2 44878  97.4619 190.1660 0013422 205.3795 154.6826 15.15180589  2484"}, {"CCSDS_OMM_VERS": "3.0", "COMMENT": "GENERATED VIA SPACE-TRACK.ORG API", "CREATION_DATE": "2020-01-05T06:35:13", "ORIGINATOR": "18 SPCS", "OBJECT_NAME": "OBJECT F", "OBJECT_ID": "2019-092F", "CENTER_NAME": "EARTH", "REF_FRAME": "TEME", "TIME_SYSTEM": "UTC", "MEAN_ELEMENT_THEORY": "SGP4", "EPOCH": "2020-01-04T14:45:02.805120", "MEAN_MOTION": "15.15181965", "ECCENTRICITY": "0.00136790", "INCLINATION": "97.4615", "RA_OF_ASC_NODE": "190.7493", "ARG_OF_PERICENTER": "202.4410", "MEAN_ANOMALY": "157.6342", "EPHEMERIS_TYPE": "0", "CLASSIFICATION_TYPE": "U", "NORAD_CAT_ID": "44878", "ELEMENT_SET_NO": "999", "REV_AT_EPOCH": "257", "BSTAR": "0.00000000000000", "MEAN_MOTION_DOT": "-0.00000066", "MEAN_MOTION_DDOT": "0.0000000000000", "SEMIMAJOR_AXIS": "6898.563", "PERIOD": "95.038", "APOAPSIS": "529.864", "PERIAPSIS": "510.991", "OBJECT_TYPE": "TBA", "RCS_SIZE": "SMALL", "COUNTRY_CODE": "TBD", "LAUNCH_DATE": "2019-12-18", "SITE": "FRGUI", "DECAY_DATE": null, "FILE": "2678683", "GP_ID": "146162875", "TLE_LINE0": "0 OBJECT F", "TLE_LINE1": "1 44878U 19092F   20004.61461580 -.00000066 +00000-0 +00000-0 0  9992", "TLE_LINE2": "2 44878 097.4615 190.7493 0013679 202.4410 157.6342 15.15181965002571"}, {"CCSDS_OMM_VERS": "3.0", "COMMENT": "GENERATED VIA SPACE-TRACK.ORG API", "CREATION_DATE": "2020-01-05T06:20:17", "ORIGINATOR": "18 SPCS", "OBJECT_NAME": "OBJECT F", "OBJECT_ID": "2019-092F", "CENTER_NAME": "EARTH", "REF_FRAME": "TEME", "TIME_SYSTEM": "UTC", "MEAN_ELEMENT_THEORY": "SGP4", "EPOCH": "2020-01-05T01:50:44.059776", "MEAN_MOTION": "15.15182233", "ECCENTRICITY": "0.00137830", "INCLINATION": "97.4614", "RA_OF_ASC_NODE": "191.2032", "ARG_OF_PERICENTER": "200.3258", "MEAN_ANOMALY": "159.7449", "EPHEMERIS_TYPE": "0", "CLASSIFICATION_TYPE": "U", "NORAD_CAT_ID": "44878", "ELEMENT_SET_NO": "999", "REV_AT_EPOCH": "264", "BSTAR": "0.00000000000000", "MEAN_MOTION_DOT": "-0.00000066", "MEAN_MOTION_DDOT": "0.0000000000000", "SEMIMAJOR_AXIS": "6898.562", "PERIOD": "95.038", "APOAPSIS": "529.935", "PERIAPSIS": "510.919", "OBJECT_TYPE": "TBA", "RCS_SIZE": "SMALL", "COUNTRY_CODE": "TBD", "LAUNCH_DATE": "2019-12-18", "SITE": "FRGUI", "DECAY_DATE": null, "FILE": "2678546", "GP_ID": "146140164", "TLE_LINE0": "0 OBJECT F", "TLE_LINE1": "1 44878U 19092F   20005.07689884 -.00000066  00000-0  00000+0 0  9991", "TLE_LINE2": "2 44878  97.4614 191.2032 0013783 200.3258 159.7449 15.15182233  2646"}]